HELIOS 1B               
1 25977U 99064A   21022.17276765  .00000061  00000-0  14762-4 0  9997
2 25977  98.3011 191.0335 0001710  45.6051 314.5301 14.82526460138823
TERRA                   
1 25994U 99068A   21022.16131142  .00000037  00000-0  18219-4 0  9992
2 25994  98.1925  99.1609 0001331  98.3442 283.5357 14.57121490122166
SL-16 R/B               
1 26070U 00006B   21021.53455977  .00000239  00000-0  14645-3 0  9999
2 26070  71.0027  74.9816 0015724 159.9802 200.1941 14.15469934 83499
MTI                     
1 26102U 00014A   21021.96222056  .00005710  00000-0  76476-4 0  9991
2 26102  97.4805 280.9739 0007721 129.0812 231.1145 15.58402663158511
TITAN 4B R/B            
1 26474U 00047B   21021.81192327  .00000093  00000-0  19012-4 0  9992
2 26474  67.9924 194.6041 0059587 313.8555  45.7671 14.96069897111902
ENVISAT                 
1 27386U 02009A   21021.97854167  .00000021  00000-0  20471-4 0  9991
2 27386  98.1419  23.5737 0001191  86.7265 326.1531 14.38009440990027
IDEFIX & ARIANE 42P R/B 
1 27422U 02021B   21021.80013775 -.00000001  00000-0  16006-4 0  9998
2 27422  98.3833 340.1647 0011388 310.1240  49.8944 14.29306083976354
AQUA                    
1 27424U 02022A   21022.13042604  .00000085  00000-0  28931-4 0  9992
2 27424  98.2153 325.5629 0002233  54.2150  62.1122 14.57103381995761
CZ-4B R/B               
1 27432U 02024C   21021.78316513 -.00000024  00000-0  11768-4 0  9990
2 27432  99.0900  33.6993 0049503 280.7456 253.2547 14.14103096964504
MIDORI II (ADEOS-II)    
1 27597U 02056A   21021.81061653  .00000024  00000-0  27405-4 0  9997
2 27597  98.5482 330.1948 0002030  77.6048 282.5360 14.27480644942969
H-2A R/B                
1 27601U 02056E   21021.83439199 -.00000100  00000-0 -21230-4 0  9996
2 27601  98.2042  52.1018 0071826 347.9291 185.0361 14.31993702945943
CZ-4B R/B               
1 28059U 03049C   21021.74691280 -.00000019  00000-0  72340-5 0  9995
2 28059  98.4910 306.7410 0049807 189.9411 170.0803 14.52631295914527
CZ-2C R/B               
1 28222U 04012C   21021.85728495  .00000774  00000-0  49750-4 0  9994
2 28222  97.7081 351.3959 0047041   4.8140  50.3013 15.10663266918969
SL-16 R/B               
1 28353U 04021B   21021.83541246 -.00000183  00000-0 -70780-4 0  9997
2 28353  70.9983 201.3135 0005351 338.1842  21.9052 14.14234088858013
CZ-4B R/B               
1 28415U 04035C   21021.83203457 -.00000121  00000-0 -34819-5 0  9996
2 28415  97.5867  66.6679 0050583 329.2588  30.5679 15.07007293896526
CZ-2C R/B               
1 28480U 04046B   21021.83819897 -.00000029  00000-0  47631-5 0  9993
2 28480  98.0592  45.6064 0140793 298.5225 236.6409 14.25737047841530
ARIANE 5 R/B            
1 28499U 04049H   21021.88589698  .00000030  00000-0  11249-4 0  9990
2 28499  98.0620 130.4795 0090761 287.5964 181.8372 14.80081838868409
CZ-2D R/B               
1 28738U 05024B   21021.49080916  .00000328  00000-0  22557-4 0  9990
2 28738  97.3697  42.6720 0012770 144.0146 216.1948 15.12243627854358
SUZAKU (ASTRO-EII)      
1 28773U 05025A   21022.15327631  .00001138  00000-0  50262-4 0  9996
2 28773  31.3829  34.1926 0004626 248.9884 111.0269 15.18026391857197
ALOS (DAICHI)           
1 28931U 06002A   21022.17663066  .00000131  00000-0  34229-4 0  9992
2 28931  97.8692   3.4735 0002104  92.6438 267.5002 14.62788727799679
H-2A R/B                
1 28932U 06002B   21021.78846583  .00000651  00000-0  65582-4 0  9999
2 28932  98.3314  30.2760 0087766 328.0929 205.0134 14.92419170813701
AKARI (ASTRO-F)         
1 28939U 06005A   21021.77716789  .00003732  00000-0  97060-4 0  9991
2 28939  98.2489  27.4386 0088415 279.9936  79.1336 15.35799455814380
RESURS-DK 1             
1 29228U 06021A   21022.16743337  .00000091  00000-0  14138-4 0  9994
2 29228  69.9366 351.1809 0002817 170.4702 189.6513 15.02631699805604
GENESIS 1               
1 29252U 06029A   21021.83016489  .00000441  00000-0  31247-4 0  9992
2 29252  64.5228 307.2016 0024572 341.4813  18.5413 15.18434978801250
CZ-4B R/B               
1 29507U 06046C   21021.80589091  .00000331  00000-0  30472-4 0  9992
2 29507  97.7175  48.5913 0046757 147.3456 213.0674 15.00623519778119
CZ-2C R/B               
1 31114U 07010B   21021.84207510  .00000040  00000-0  37168-4 0  9994
2 31114  98.2379 225.7889 0059580 351.5597   8.4573 14.19345428713989
COSMO-SKYMED 1          
1 31598U 07023A   21022.14439599  .00000215  00000-0  33584-4 0  9994
2 31598  97.8836 208.1266 0001459  91.2541 268.8827 14.82157663737220
GENESIS 2               
1 31789U 07028A   21021.64530814  .00000525  00000-0  36051-4 0  9993
2 31789  64.5068 349.8531 0028951 218.6963 141.2087 15.17571914748285
COSMOS 2428             
1 31792U 07029A   21022.14267318 -.00000100  00000-0 -27938-4 0  9995
2 31792  70.8915 173.4931 0005043 117.4175 242.7459 14.12238436699742
SL-16 R/B               
1 31793U 07029B   21021.82187126 -.00000025  00000-0  11923-4 0  9990
2 31793  70.9769 147.6472 0002832 277.7739 245.1970 14.14444920700537
KORONAS-FOTON           
1 33504U 09003A   21021.68627475  .00000726  00000-0  36189-4 0  9994
2 33504  82.4422   5.6461 0017503 241.8740 118.0724 15.15846221660430
H-2A R/B                
1 38341U 12025E   21021.76092677  .00000167  00000-0  27183-4 0  9998
2 38341  98.5181 197.2530 0054364 250.2722 109.2621 14.84151648469745
CUSAT 2 & FALCON 9 R/B  
1 39271U 13055G   21022.11023160  .00003950  00000-0  94090-4 0  9990
2 39271  80.9654  31.3640 0576640 231.3688 123.4547 14.50739059382408
SL-4 R/B                
1 39679U 14021B   21021.82026476 -.00000052  00000-0  15818-4 0  9998
2 39679  51.6153 173.8480 0170756 342.8136  16.7096 15.06725870371945
ALOS-2                  
1 39766U 14029A   21022.10053779  .00000098  00000-0  20008-4 0  9997
2 39766  97.9210 121.5742 0001547  92.6679 267.4674 14.79473887360024
CZ-2C R/B               
1 40306U 14071B   21021.86363922  .00003756  00000-0  76510-4 0  9995
2 40306  97.3526 336.8479 0016670  89.2046 271.1113 15.46760872347585
SL-27 R/B               
1 40354U 14084B   21021.87791389  .00001040  00000-0  26179-4 0  9995
2 40354  74.7383 296.0734 0036471  12.5254 347.6855 15.40721272341761
YAOGAN 29               
1 41038U 15069A   21022.08415845  .00000023  00000-0  98896-5 0  9999
2 41038  98.0281  15.9104 0000529  74.8433 285.2837 14.80482232278625
ASTRO-H (HITOMI)        
1 41337U 16012A   21022.18434899  .00000292  00000-0  16721-4 0  9995
2 41337  31.0063  62.8320 0012283  72.8196 287.3783 14.98774467270344
HXMT (HUIYAN)           
1 42758U 17034A   21022.11827709  .00000254  00000-0  29444-4 0  9991
2 42758  43.0180 276.2650 0010997 319.2331 190.1399 15.09040597198909
CZ-2C R/B               
1 43521U 18054D   21022.09916248  .00000402  00000-0  23593-4 0  9991
2 43521  35.1535 272.2441 0083152 246.8022 112.3916 15.11288944142243
AEOLUS                  
1 43600U 18066A   21022.12423772  .00030178  00000-0  11877-3 0  9995
2 43600  96.7189  31.2065 0006744  90.6581 269.5464 15.86807809140049
SAOCOM 1A               
1 43641U 18076A   21022.08528892  .00000003  00000-0  69389-5 0  9992
2 43641  97.8856 211.0868 0001419  85.3736 274.7637 14.82154350123988
CREW DRAGON DEMO-1 DEB  
1 44064U 19011B   21021.73440283  .00028431  00000-0  19302-3 0  9993
2 44064  51.6299 280.4134 0004173 148.9831 211.1415 15.74708972107174
CZ-2F R/B               
1 46390U 20063B   21021.35158376  .00032581  00000-0  13336-3 0  9995
2 46390  50.2028  42.3855 0009117 185.5684 174.5200 15.85656811 22002
2020-063G               
1 46395U 20063G   21021.74088572  .00013788  00000-0  72579-4 0  9996
2 46395  50.2055  42.8335 0008993 180.7001 179.3970 15.80964286 22028
